INSAT-3DR               
1 41752U 16054A   24189.34982653 -.00000081  00000+0  00000+0 0  9997
2 41752   0.0599  91.0972 0010550 175.2963 219.3266  1.00271542 28704
GSAT-18                 
1 41793U 16060A   24188.77749850 -.00000081  00000+0  00000+0 0  9995
2 41793   0.0248  50.1658 0002230  66.8198 162.1352  1.00270389 28404
SKY MUSTER 2 (NBN1B)    
1 41794U 16060B   24189.72176916 -.00000248  00000+0  00000+0 0  9994
2 41794   0.0185  38.9489 0001400  58.3950 233.4384  1.00270208 28464
HIMAWARI-9              
1 41836U 16064A   24190.02410551 -.00000278  00000+0  00000+0 0  9999
2 41836   0.0176 143.3095 0000869 316.5734 336.0028  1.00273267 28195
SHIJIAN-17 (SJ-17)      
1 41838U 16065A   24189.60763383 -.00000053  00000+0  00000+0 0  9999
2 41838   3.9393  81.1806 0003987   1.6198 229.1670  1.00271892 28095
GOES 16                 
1 41866U 16071A   24189.53496792 -.00000251  00000+0  00000+0 0  9996
2 41866   0.0790 250.0285 0000051 265.1795 248.1401  1.00270536 27986
TIANLIAN 1-04           
1 41869U 16072A   24189.34849639  .00000027  00000+0  00000+0 0  9991
2 41869   0.1358 265.5424 0035493 246.5607  75.9296  1.00272291 28191
WGS F8 (USA 272)        
1 41879U 16075A   24189.35535698 -.00000205  00000+0  00000+0 0  9992
2 41879   0.0121  20.7069 0000502 278.8643 263.9323  1.00279470 27708
FENGYUN 4A              
1 41882U 16077A   24189.56719867 -.00000203  00000+0  00000+0 0  9991
2 41882   0.5090  85.9264 0007981 344.2424 146.7706  1.00267710 27814
ECHOSTAR 19             
1 41893U 16079A   24189.60213507 -.00000142  00000+0  00000+0 0  9992
2 41893   0.0182  35.9228 0001324  85.8584 283.9274  1.00272647 27626
JCSAT-110A (JCSAT-15)   
1 41903U 16082A   24189.79653212 -.00000354  00000+0  00000+0 0  9994
2 41903   0.0183  29.5659 0000521 115.3660 178.1125  1.00272033 27661
STAR ONE D1             
1 41904U 16082B   24189.84354890 -.00000214  00000+0  00000+0 0  9996
2 41904   0.0457  71.9841 0001934  33.5476  40.4433  1.00270396 27679
TJS-2                   
1 41911U 17001A   24189.77779409 -.00000009  00000+0  00000+0 0  9997
2 41911   0.1571 267.1005 0001460 181.3204 184.2297  1.00272351 27613
SBIRS GEO-4 (USA 273)   
1 41937U 17004A   24189.60222209 -.00000148  00000+0  00000+0 0  9995
2 41937   1.4150   0.6068 0001648 106.9411 298.4854  1.00271818 27487
HISPASAT 36W-1          
1 41942U 17006A   24189.68581480 -.00000248  00000+0  00000+0 0  9991
2 41942   0.0107  57.7797 0001022  53.8628  25.3895  1.00269017 27411
TELKOM 3S               
1 41944U 17007A   24190.07420429 -.00000366  00000+0  00000+0 0  9995
2 41944   0.0144  56.6632 0002047  52.0750 322.4840  1.00272047 27109
INTELSAT 32E (IS-32E)   
1 41945U 17007B   24189.82757102 -.00000272  00000+0  00000+0 0  9994
2 41945   0.0190  31.8601 0000797 317.1935 191.9612  1.00273071 27139
ECHOSTAR 23             
1 42070U 17014A   24189.45572800 -.00000061  00000+0  00000+0 0  9997
2 42070   0.0176  30.1833 0002155  73.4400 236.4308  1.00271949 26803
WGS F9 (USA 275)        
1 42075U 17016A   24189.83374962 -.00000100  00000+0  00000+0 0  9999
2 42075   0.0093  60.6744 0000467 172.0736 341.6335  1.00272697 26818
SES-10                  
1 42432U 17017A   24189.89435441 -.00000276  00000+0  00000+0 0  9997
2 42432   0.0207  49.7860 0002293  49.5411  82.0613  1.00272099 26615
CHINASAT 16 (SJ-13)     
1 42662U 17018A   24188.74773896 -.00000356  00000+0  00000+0 0  9994
2 42662   0.0611  92.4823 0004057 135.3248  77.0726  1.00273831 26619
KOREASAT 7              
1 42691U 17023A   24189.57294215 -.00000366  00000+0  00000+0 0  9998
2 42691   0.0238  17.3871 0000278  93.6699 137.1215  1.00271840 26262
SGDC                    
1 42692U 17023B   24189.41389209 -.00000253  00000+0  00000+0 0  9995
2 42692   0.0130  23.4743 0002056  90.7288 245.7999  1.00272208 26330
GSAT-9                  
1 42695U 17024A   24189.60387605 -.00000290  00000+0  00000+0 0  9999
2 42695   0.0364 100.4951 0002467   0.1093 140.1692  1.00271746 26192
INMARSAT 5-F4           
1 42698U 17025A   24188.97476487  .00000071  00000+0  00000+0 0  9995
2 42698   0.0187  41.1909 0000444 156.3357 135.3002  1.00272541 26153
SES-15                  
1 42709U 17026A   24189.73891263  .00000057  00000+0  00000+0 0  9991
2 42709   0.0201  34.8418 0000137  41.3392 346.8497  1.00269184 27076
QZS-2 (MICHIBIKI-2)     
1 42738U 17028A   24188.46195543 -.00000158  00000+0  00000+0 0  9995
2 42738  40.5420 253.4839 0757875 269.4335  69.8869  1.00279302   499
VIASAT-2                
1 42740U 17029A   24189.60744345 -.00000269  00000+0  00000+0 0  9999
2 42740   0.0158  54.6454 0000036 314.8287  65.3318  1.00272489 26066
EUTELSAT 172B           
1 42741U 17029B   24190.08490807 -.00000009  00000+0  00000+0 0  9997
2 42741   0.0051 125.9355 0000104 189.3666 173.7775  1.00271315 26601
GSAT-19                 
1 42747U 17031A   24189.55942128  .00000121  00000+0  00000+0 0  9998
2 42747   0.0250 287.9134 0006178 147.7232  99.6429  1.00273500 26011
ECHOSTAR 21             
1 42749U 17032A   24189.90466082  .00000064  00000+0  00000+0 0  9996
2 42749   2.4958 320.6058 0002057 142.4005 159.2549  1.00271495 26002
BULGARIASAT-1           
1 42801U 17038A   24189.83653434  .00000008  00000+0  00000+0 0  9990
2 42801   0.0294  61.0377 0002721  61.9536 106.3419  1.00273942 25793
