OBJECT_NAME,OBJECT_ID,EPOCH,MEAN_MOTION,ECCENTRICITY,INCLINATION,RA_OF_ASC_NODE,ARG_OF_PERICENTER,MEAN_ANOMALY,EPHEMERIS_TYPE,CLASSIFICATION_TYPE,NORAD_CAT_ID,ELEMENT_SET_NO,REV_AT_EPOCH,BSTAR,MEAN_MOTION_DOT,MEAN_MOTION_DDOT
INSAT-3DR,2016-054A,2024-07-07T08:23:45.012192,1.00271542,.001055,0.0599,91.0972,175.2963,219.3266,0,U,41752,999,2870,0,-.81E-6,0
GSAT-18,2016-060A,2024-07-06T18:39:35.870400,1.00270389,.000223,0.0248,50.1658,66.8198,162.1352,0,U,41793,999,2840,0,-.81E-6,0
SKY MUSTER 2 (NBN1B),2016-060B,2024-07-07T17:19:20.855424,1.00270208,.00014,0.0185,38.9489,58.3950,233.4384,0,U,41794,999,2846,0,-.248E-5,0
HIMAWARI-9,2016-064A,2024-07-08T00:34:42.716064,1.00273267,.0000869,0.0176,143.3095,316.5734,336.0028,0,U,41836,999,2819,0,-.278E-5,0
SHIJIAN-17 (SJ-17),2016-065A,2024-07-07T14:34:59.562912,1.00271892,.0003987,3.9393,81.1806,1.6198,229.1670,0,U,41838,999,2809,0,-.53E-6,0
GOES 16,2016-071A,2024-07-07T12:50:21.228288,1.00270536,.0000051,0.0790,250.0285,265.1795,248.1401,0,U,41866,999,2798,0,-.251E-5,0
TIANLIAN 1-04,2016-072A,2024-07-07T08:21:50.088096,1.00272291,.0035493,0.1358,265.5424,246.5607,75.9296,0,U,41869,999,2819,0,.27E-6,0
WGS F8 (USA 272),2016-075A,2024-07-07T08:31:42.843072,1.00279470,.0000502,0.0121,20.7069,278.8643,263.9323,0,U,41879,999,2770,0,-.205E-5,0
FENGYUN 4A,2016-077A,2024-07-07T13:36:45.965088,1.00267710,.0007981,0.5090,85.9264,344.2424,146.7706,0,U,41882,999,2781,0,-.203E-5,0
ECHOSTAR 19,2016-079A,2024-07-07T14:27:04.470048,1.00272647,.0001324,0.0182,35.9228,85.8584,283.9274,0,U,41893,999,2762,0,-.142E-5,0
JCSAT-110A (JCSAT-15),2016-082A,2024-07-07T19:07:00.375168,1.00272033,.0000521,0.0183,29.5659,115.3660,178.1125,0,U,41903,999,2766,0,-.354E-5,0
STAR ONE D1,2016-082B,2024-07-07T20:14:42.624960,1.00270396,.0001934,0.0457,71.9841,33.5476,40.4433,0,U,41904,999,2767,0,-.214E-5,0
TJS-2,2017-001A,2024-07-07T18:40:01.409376,1.00272351,.000146,0.1571,267.1005,181.3204,184.2297,0,U,41911,999,2761,0,-.9E-7,0
SBIRS GEO-4 (USA 273),2017-004A,2024-07-07T14:27:11.988576,1.00271818,.0001648,1.4150,0.6068,106.9411,298.4854,0,U,41937,999,2748,0,-.148E-5,0
HISPASAT 36W-1,2017-006A,2024-07-07T16:27:34.398720,1.00269017,.0001022,0.0107,57.7797,53.8628,25.3895,0,U,41942,999,2741,0,-.248E-5,0
TELKOM 3S,2017-007A,2024-07-08T01:46:51.250656,1.00272047,.0002047,0.0144,56.6632,52.0750,322.4840,0,U,41944,999,2710,0,-.366E-5,0
INTELSAT 32E (IS-32E),2017-007B,2024-07-07T19:51:42.136128,1.00273071,.0000797,0.0190,31.8601,317.1935,191.9612,0,U,41945,999,2713,0,-.272E-5,0
ECHOSTAR 23,2017-014A,2024-07-07T10:56:14.899200,1.00271949,.0002155,0.0176,30.1833,73.4400,236.4308,0,U,42070,999,2680,0,-.61E-6,0
WGS F9 (USA 275),2017-016A,2024-07-07T20:00:35.967168,1.00272697,.0000467,0.0093,60.6744,172.0736,341.6335,0,U,42075,999,2681,0,-.1E-5,0
SES-10,2017-017A,2024-07-07T21:27:52.221024,1.00272099,.0002293,0.0207,49.7860,49.5411,82.0613,0,U,42432,999,2661,0,-.276E-5,0
CHINASAT 16 (SJ-13),2017-018A,2024-07-06T17:56:44.646144,1.00273831,.0004057,0.0611,92.4823,135.3248,77.0726,0,U,42662,999,2661,0,-.356E-5,0
KOREASAT 7,2017-023A,2024-07-07T13:45:02.201760,1.00271840,.0000278,0.0238,17.3871,93.6699,137.1215,0,U,42691,999,2626,0,-.366E-5,0
SGDC,2017-023B,2024-07-07T09:56:00.276576,1.00272208,.0002056,0.0130,23.4743,90.7288,245.7999,0,U,42692,999,2633,0,-.253E-5,0
GSAT-9,2017-024A,2024-07-07T14:29:34.890720,1.00271746,.0002467,0.0364,100.4951,0.1093,140.1692,0,U,42695,999,2619,0,-.29E-5,0
INMARSAT 5-F4,2017-025A,2024-07-06T23:23:39.684768,1.00272541,.0000444,0.0187,41.1909,156.3357,135.3002,0,U,42698,999,2615,0,.71E-6,0
SES-15,2017-026A,2024-07-07T17:44:02.051232,1.00269184,.0000137,0.0201,34.8418,41.3392,346.8497,0,U,42709,999,2707,0,.57E-6,0
QZS-2 (MICHIBIKI-2),2017-028A,2024-07-06T11:05:12.949152,1.00279302,.0757875,40.5420,253.4839,269.4335,69.8869,0,U,42738,999,49,0,-.158E-5,0
VIASAT-2,2017-029A,2024-07-07T14:34:43.114080,1.00272489,.0000036,0.0158,54.6454,314.8287,65.3318,0,U,42740,999,2606,0,-.269E-5,0
EUTELSAT 172B,2017-029B,2024-07-08T02:02:16.057248,1.00271315,.0000104,0.0051,125.9355,189.3666,173.7775,0,U,42741,999,2660,0,-.9E-7,0
GSAT-19,2017-031A,2024-07-07T13:25:33.998592,1.00273500,.0006178,0.0250,287.9134,147.7232,99.6429,0,U,42747,999,2601,0,.121E-5,0
ECHOSTAR 21,2017-032A,2024-07-07T21:42:42.694848,1.00271495,.0002057,2.4958,320.6058,142.4005,159.2549,0,U,42749,999,2600,0,.64E-6,0
BULGARIASAT-1,2017-038A,2024-07-07T20:04:36.566976,1.00273942,.0002721,0.0294,61.0377,61.9536,106.3419,0,U,42801,999,2579,0,.8E-7,0
